{"type": "FeatureCollection", "features": [ {"type": "Feature", "properties": {"norad_id": 66546, "name": "SHIJIAN-30B", "group": "last-30-days", "lat": 7.485536047727424, "lon": 157.81859322010854, "alt_km": 526.943040291234, "timestamp": "2025-12-10T09:57:43.489140+00:00", "meta": {"OBJECT_NAME": "SHIJIAN-30B", "OBJECT_ID": "2025-266B", "EPOCH": "2025-12-10T04:27:53.670240", "MEAN_MOTION": 15.15311824, "ECCENTRICITY": 0.0010457, "INCLINATION": 51.7972, "RA_OF_ASC_NODE": 344.8313, "ARG_OF_PERICENTER": 350.1104, "MEAN_ANOMALY": 9.9664, "EPHEMERIS_TYPE": 0, "CLASSIFICATION_TYPE": "U", "NORAD_CAT_ID": 66546, "ELEMENT_SET_NO": 999, "REV_AT_EPOCH": 319, "BSTAR": 0.00076136, "MEAN_MOTION_DOT": 0.00014259, "MEAN_MOTION_DDOT": 0}, "tle": {"line1": "1 66546U 25266B   25344.18603785  .00014259  00000+0  76136-3 0  9990", "line2": "2 66546  51.7972 344.8313 0010457 350.1104   9.9664 15.15311824  3195"}}, "geometry": {"type": "Point", "coordinates": [157.81859322010854, 7.485536047727424]}}, {"type": "Feature", "properties": {"norad_id": 66547, "name": "SHIJIAN-30C", "group": "last-30-days", "lat": 9.59888786580266, "lon": 156.11142419733667, "alt_km": 526.1414731226323, "timestamp": "2025-12-10T09:57:43.489152+00:00", "meta": {"OBJECT_NAME": "SHIJIAN-30C", "OBJECT_ID": "2025-266C", "EPOCH": "2025-12-10T02:53:43.836864", "MEAN_MOTION": 15.15665384, "ECCENTRICITY": 0.001134, "INCLINATION": 51.7981, "RA_OF_ASC_NODE": 345.1452, "ARG_OF_PERICENTER": 342.3198, "MEAN_ANOMALY": 17.7382, "EPHEMERIS_TYPE": 0, "CLASSIFICATION_TYPE": "U", "NORAD_CAT_ID": 66547, "ELEMENT_SET_NO": 999, "REV_AT_EPOCH": 318, "BSTAR": 0.00079714, "MEAN_MOTION_DOT": 0.00015102, "MEAN_MOTION_DDOT": 0}, "tle": {"line1": "1 66547U 25266C   25344.12064626  .00015102  00000+0  79714-3 0  9993", "line2": "2 66547  51.7981 345.1452 0011340 342.3198  17.7382 15.15665384  3188"}}, "geometry": {"type": "Point", "coordinates": [156.11142419733667, 9.59888786580266]}}, {"type": "Feature", "properties": {"norad_id": 66548, "name": "CZ-2C R/B", "group": "last-30-days", "lat": -6.445514814349974, "lon": 167.41057389553205, "alt_km": 424.01072513589406, "timestamp": "2025-12-10T09:57:43.489163+00:00", "meta": {"OBJECT_NAME": "CZ-2C R/B", "OBJECT_ID": "2025-266D", "EPOCH": "2025-12-10T04:26:37.163040", "MEAN_MOTION": 15.30092915, "ECCENTRICITY": 0.0084055, "INCLINATION": 52.0566, "RA_OF_ASC_NODE": 343.4493, "ARG_OF_PERICENTER": 164.2644, "MEAN_ANOMALY": 196.0984, "EPHEMERIS_TYPE": 0, "CLASSIFICATION_TYPE": "U", "NORAD_CAT_ID": 66548, "ELEMENT_SET_NO": 999, "REV_AT_EPOCH": 322, "BSTAR": 0.00044912, "MEAN_MOTION_DOT": 0.0001441, "MEAN_MOTION_DDOT": 0}, "tle": {"line1": "1 66548U 25266D   25344.18515235  .00014410  00000+0  44912-3 0  9990", "line2": "2 66548  52.0566 343.4493 0084055 164.2644 196.0984 15.30092915  3223"}}, "geometry": {"type": "Point", "coordinates": [167.41057389553205, -6.445514814349974]}}, {"type": "Feature", "properties": {"norad_id": 66549, "name": "SHIJIAN-28", "group": "last-30-days", "lat": 6.073294287019892, "lon": -54.685528868501315, "alt_km": 28567.890033661748, "timestamp": "2025-12-10T09:57:43.489183+00:00", "meta": {"OBJECT_NAME": "SHIJIAN-28", "OBJECT_ID": "2025-277A", "EPOCH": "2025-12-01T04:36:42.476256", "MEAN_MOTION": 2.08595383, "ECCENTRICITY": 0.6308324, "INCLINATION": 11.5392, "RA_OF_ASC_NODE": 275.706, "ARG_OF_PERICENTER": 179.9335, "MEAN_ANOMALY": 180.3971, "EPHEMERIS_TYPE": 0, "CLASSIFICATION_TYPE": "U", "NORAD_CAT_ID": 66549, "ELEMENT_SET_NO": 999, "REV_AT_EPOCH": 5, "BSTAR": 0, "MEAN_MOTION_DOT": -3.3e-07, "MEAN_MOTION_DDOT": 0}, "tle": {"line1": "1 66549U 25277A   25335.19215829 -.00000033  00000+0  00000+0 0  9993", "line2": "2 66549  11.5392 275.7060 6308324 179.9335 180.3971  2.08595383    50"}}, "geometry": {"type": "Point", "coordinates": [-54.685528868501315, 6.073294287019892]}}, {"type": "Feature", "properties": {"norad_id": 66550, "name": "CZ-7A R/B", "group": "last-30-days", "lat": 2.209110943857045, "lon": -80.2864924860308, "alt_km": 31465.738238997958, "timestamp": "2025-12-10T09:57:43.489206+00:00", "meta": {"OBJECT_NAME": "CZ-7A R/B", "OBJECT_ID": "2025-277B", "EPOCH": "2025-12-09T05:27:24.418944", "MEAN_MOTION": 2.57975656, "ECCENTRICITY": 0.7104172, "INCLINATION": 14.4001, "RA_OF_ASC_NODE": 271.6446, "ARG_OF_PERICENTER": 185.6905, "MEAN_ANOMALY": 156.7335, "EPHEMERIS_TYPE": 0, "CLASSIFICATION_TYPE": "U", "NORAD_CAT_ID": 66550, "ELEMENT_SET_NO": 999, "REV_AT_EPOCH": 25, "BSTAR": 0.0029501, "MEAN_MOTION_DOT": 0.01805656, "MEAN_MOTION_DDOT": 5.5061e-07}, "tle": {"line1": "1 66550U 25277B   25343.22736596  .01805656  55061-6  29501-2 0  9995", "line2": "2 66550  14.4001 271.6446 7104172 185.6905 156.7335  2.57975656   259"}}, "geometry": {"type": "Point", "coordinates": [-80.2864924860308, 2.209110943857045]}}, {"type": "Feature", "properties": {"norad_id": 66551, "name": "UNKNOWN", "group": "last-30-days", "lat": -39.8871578191078, "lon": 57.262630236326295, "alt_km": 317.4705515638725, "timestamp": "2025-12-10T09:57:43.489219+00:00", "meta": {"OBJECT_NAME": "UNKNOWN", "OBJECT_ID": "2025-271AE", "EPOCH": "2025-12-02T16:00:03.000096", "MEAN_MOTION": 15.87051116, "ECCENTRICITY": 7.17e-05, "INCLINATION": 53.1571, "RA_OF_ASC_NODE": 236.7807, "ARG_OF_PERICENTER": 110.7411, "MEAN_ANOMALY": 313.9012, "EPHEMERIS_TYPE": 0, "CLASSIFICATION_TYPE": "U", "NORAD_CAT_ID": 66551, "ELEMENT_SET_NO": 999, "REV_AT_EPOCH": 262, "BSTAR": -0.0074303, "MEAN_MOTION_DOT": -0.01709685, "MEAN_MOTION_DDOT": 0}, "tle": {"line1": "1 66551U 25271AE  25336.66670139 -.01709685  00000+0 -74303-2 0  9993", "line2": "2 66551  53.1571 236.7807 0000717 110.7411 313.9012 15.87051116  2624"}}, "geometry": {"type": "Point", "coordinates": [57.262630236326295, -39.8871578191078]}}, {"type": "Feature", "properties": {"norad_id": 66554, "name": "GLOBAL-33", "group": "last-30-days", "lat": -4.594655216953263, "lon": -104.46821959117, "alt_km": 474.1521477451379, "timestamp": "2025-12-10T09:57:43.489230+00:00", "meta": {"OBJECT_NAME": "GLOBAL-33", "OBJECT_ID": "2025-267A", "EPOCH": "2025-12-09T14:22:09.826176", "MEAN_MOTION": 15.31535046, "ECCENTRICITY": 0.00046403, "INCLINATION": 42.0203, "RA_OF_ASC_NODE": 75.1254, "ARG_OF_PERICENTER": 30.4756, "MEAN_ANOMALY": 329.6351, "EPHEMERIS_TYPE": 0, "CLASSIFICATION_TYPE": "U", "NORAD_CAT_ID": 66554, "ELEMENT_SET_NO": 999, "REV_AT_EPOCH": 292, "BSTAR": 0.00060900929, "MEAN_MOTION_DOT": 0.00018748, "MEAN_MOTION_DDOT": 0}, "tle": {"line1": "1 66554U 25267A   25343.59872484  .00018748  00000+0  60901-3 0  9998", "line2": "2 66554  42.0203  75.1254 0004640  30.4756 329.6351 15.31535046  2927"}}, "geometry": {"type": "Point", "coordinates": [-104.46821959117, -4.594655216953263]}}, {"type": "Feature", "properties": {"norad_id": 66555, "name": "ELECTRON KICK STAGE R/B", "group": "last-30-days", "lat": -36.45910868376185, "lon": -54.578174255930435, "alt_km": 475.0265006864438, "timestamp": "2025-12-10T09:57:43.489240+00:00", "meta": {"OBJECT_NAME": "ELECTRON KICK STAGE R/B", "OBJECT_ID": "2025-267B", "EPOCH": "2025-12-09T14:08:24.415872", "MEAN_MOTION": 15.32568899, "ECCENTRICITY": 0.00067718, "INCLINATION": 42.0198, "RA_OF_ASC_NODE": 75.0548, "ARG_OF_PERICENTER": 28.3952, "MEAN_ANOMALY": 331.7253, "EPHEMERIS_TYPE": 0, "CLASSIFICATION_TYPE": "U", "NORAD_CAT_ID": 66555, "ELEMENT_SET_NO": 999, "REV_AT_EPOCH": 292, "BSTAR": 0.0010090003, "MEAN_MOTION_DOT": 0.00032333, "MEAN_MOTION_DDOT": 0}, "tle": {"line1": "1 66555U 25267B   25343.58917148  .00032333  00000+0  10090-2 0  9994", "line2": "2 66555  42.0198  75.0548 0006771  28.3952 331.7253 15.32568899  2925"}}, "geometry": {"type": "Point", "coordinates": [-54.578174255930435, -36.45910868376185]}}, {"type": "Feature", "properties": {"norad_id": 66557, "name": "STARLINK-35699", "group": "last-30-days", "lat": 38.776508257824034, "lon": -165.6565647441738, "alt_km": 409.6554270565339, "timestamp": "2025-12-10T09:57:43.489250+00:00", "meta": {"OBJECT_NAME": "STARLINK-35699", "OBJECT_ID": "2025-268A", "EPOCH": "2025-12-10T04:00:01.998720", "MEAN_MOTION": 15.50750156, "ECCENTRICITY": 0.0001344, "INCLINATION": 43.0008, "RA_OF_ASC_NODE": 136.2465, "ARG_OF_PERICENTER": 271.0196, "MEAN_ANOMALY": 207.415, "EPHEMERIS_TYPE": 0, "CLASSIFICATION_TYPE": "U", "NORAD_CAT_ID": 66557, "ELEMENT_SET_NO": 999, "REV_AT_EPOCH": 425, "BSTAR": -0.0052372, "MEAN_MOTION_DOT": -0.00297995, "MEAN_MOTION_DDOT": 0}, "tle": {"line1": "1 66557U 25268A   25344.16668980 -.00297995  00000+0 -52372-2 0  9997", "line2": "2 66557  43.0008 136.2465 0001344 271.0196 207.4150 15.50750156  4256"}}, "geometry": {"type": "Point", "coordinates": [-165.6565647441738, 38.776508257824034]}}, {"type": "Feature", "properties": {"norad_id": 66558, "name": "STARLINK-35695", "group": "last-30-days", "lat": 39.40567792446765, "lon": -163.37154180273086, "alt_km": 409.40898319200915, "timestamp": "2025-12-10T09:57:43.489263+00:00", "meta": {"OBJECT_NAME": "STARLINK-35695", "OBJECT_ID": "2025-268B", "EPOCH": "2025-12-10T04:00:01.998720", "MEAN_MOTION": 15.50701277, "ECCENTRICITY": 0.0001239, "INCLINATION": 43.0007, "RA_OF_ASC_NODE": 136.241, "ARG_OF_PERICENTER": 275.3599, "MEAN_ANOMALY": 204.9718, "EPHEMERIS_TYPE": 0, "CLASSIFICATION_TYPE": "U", "NORAD_CAT_ID": 66558, "ELEMENT_SET_NO": 999, "REV_AT_EPOCH": 425, "BSTAR": -0.0029477, "MEAN_MOTION_DOT": -0.00170301, "MEAN_MOTION_DDOT": 0}, "tle": {"line1": "1 66558U 25268B   25344.16668980 -.00170301  00000+0 -29477-2 0  9999", "line2": "2 66558  43.0007 136.2410 0001239 275.3599 204.9718 15.50701277  4255"}}, "geometry": {"type": "Point", "coordinates": [-163.37154180273086, 39.40567792446765]}}]}